OBJECT_NAME,OBJECT_ID,EPOCH,MEAN_MOTION,ECCENTRICITY,INCLINATION,RA_OF_ASC_NODE,ARG_OF_PERICENTER,MEAN_ANOMALY,EPHEMERIS_TYPE,CLASSIFICATION_TYPE,NORAD_CAT_ID,ELEMENT_SET_NO,REV_AT_EPOCH,BSTAR,MEAN_MOTION_DOT,MEAN_MOTION_DDOT
SATELIOT_4,2024-149BX,2026-05-09T02:59:28.122720,14.96525772,.0002705,97.6734,204.3504,138.9315,221.2111,0,U,60537,999,9413,.11641E-3,.1266E-4,0
PICO-02A021,2024-149BY,2026-05-08T16:31:34.293504,15.02884398,.00062091,97.6764,207.8727,141.3619,218.8052,0,U,60538,999,9380,.32703825E-3,.4328E-4,0
ICEYE-X43,2024-149BZ,2026-05-09T04:44:28.746816,14.99734011,.0004037,97.6771,206.7008,212.6631,147.4343,0,U,60539,999,9427,.16299E-3,.1954E-4,0
HAWK-10A,2024-149CA,2026-05-09T04:28:29.046720,14.96393788,.0003174,97.6900,205.7700,177.4024,182.7215,0,U,60540,999,9415,.65881E-4,.689E-5,0
UMBRA-09,2024-149CB,2026-05-09T03:51:17.737344,15.16873968,.0001475,97.6960,215.7393,136.8325,223.3023,0,U,60541,999,9480,.63369E-3,.12419E-3,0
QPS-SAR-8 (AMATERU-IV),2024-149CC,2026-05-09T04:54:21.874176,15.03745398,.0002012,97.6668,208.6948,205.8564,154.2561,0,U,60542,999,9441,.27086E-3,.3656E-4,0
ARCTIC WEATHER SATELLITE,2024-149CD,2026-05-09T04:45:24.894720,14.89791182,.0001262,97.6809,200.7749,192.7819,167.3367,0,U,60543,999,9349,.72366E-4,.641E-5,0
CAPELLA-15 (ACADIA-5),2024-149CE,2026-05-08T15:09:01.000512,14.92407091,.00037076,97.6763,202.5196,188.2700,171.8459,0,U,60544,999,9395,.10029475E-3,.972E-5,0
HAWK-10B,2024-149CF,2026-05-09T04:28:16.402080,14.96394060,.0004476,97.6819,205.1642,209.6714,150.4254,0,U,60545,999,9415,.63099E-4,.658E-5,0
ICEYE-X39,2024-149CG,2026-05-09T04:19:28.287264,14.99694740,.0002016,97.6826,206.7318,179.4779,180.6447,0,U,60546,999,9427,.20161E-3,.2428E-4,0
UMBRA-10,2024-149CH,2026-05-09T05:25:38.631648,15.16874835,.0002385,97.6964,215.8308,113.8429,246.3053,0,U,60547,999,9482,.62153E-3,.1218E-3,0
ICEYE-X33,2024-149CJ,2026-05-09T04:02:18.812256,15.00893757,.000107,97.7154,208.5521,348.4955,11.6244,0,U,60548,999,9435,.2674E-3,.3344E-4,0
ICEYE-X40,2024-149CK,2026-05-09T03:44:47.982624,14.97814549,.0004585,97.6807,206.2811,186.2996,173.8170,0,U,60549,999,9423,.16715E-3,.1906E-4,0
SATELIOT_1,2024-149CL,2026-05-09T03:36:09.525600,14.97905304,.0006516,97.6739,205.7006,190.9620,169.1461,0,U,60550,999,9422,.22275E-3,.2566E-4,0
BRO-14,2024-149CM,2026-05-09T04:53:47.988096,14.96100842,.0005857,97.6874,205.6825,218.2396,141.8411,0,U,60551,999,9416,.47481E-4,.477E-5,0
SATELIOT_3,2024-149CN,2026-05-09T12:37:55.598016,14.97896555,.0004422,97.6819,206.8276,201.4016,158.7022,0,U,60552,999,9429,.8933E-4,.994E-5,0
BRO-15,2024-149CP,2026-05-09T04:27:05.668128,14.96064009,.0007237,97.6807,205.3029,210.0334,150.0473,0,U,60553,999,9417,.19711E-4,.164E-5,0
UM5-RIBAT,2024-149CQ,2026-05-09T03:20:39.160032,15.00857680,.000292,97.6658,207.4661,123.3216,236.8288,0,U,60554,999,9433,.17054E-3,.2109E-4,0
UM5-EOSAT,2024-149CR,2026-05-09T04:23:54.953088,15.01262113,.0006329,97.6651,208.4091,231.7397,128.3259,0,U,60555,999,9436,.16869E-3,.2109E-4,0
LASARSAT,2024-247Q,2026-05-08T09:48:02.227968,15.43952708,.00045649,44.9737,125.3066,82.0507,278.0899,0,U,62391,999,7716,.57535081E-3,.26509E-3,0
CROCUBE,2024-247T,2026-05-08T17:00:40.694112,15.45536838,.00041324,44.9720,121.5399,85.4811,274.6551,0,U,62394,999,7723,.63708537E-3,.31054E-3,0
TEVEL2-4,2025-052D,2026-05-09T04:06:04.987584,15.33267725,.0001108,97.3941,25.5319,183.6513,176.4721,0,U,63213,999,6413,.46397E-3,.14848E-3,0
TEVEL2-5,2025-052E,2026-05-09T04:29:40.046784,15.33113840,.0001124,97.3938,25.5066,183.4233,176.7001,0,U,63214,999,6413,.47388E-3,.15094E-3,0
TEVEL2-6,2025-052F,2026-05-09T04:46:03.639072,15.33076701,.0001168,97.3941,25.5029,193.5453,166.5758,0,U,63215,999,6413,.47497E-3,.15112E-3,0
TEVEL2-1,2025-052H,2026-05-08T22:53:14.908128,15.32583713,.0000625,97.3911,24.9271,230.2543,129.8644,0,U,63217,999,6408,.50293E-3,.15761E-3,0
TEVEL2-3,2025-052J,2026-05-09T05:03:28.437120,15.32636927,.0000648,97.3916,25.2012,229.6611,130.4574,0,U,63218,999,6412,.45263E-3,.14198E-3,0
TEVEL2-2,2025-052K,2026-05-08T22:53:57.669216,15.32589483,.0000618,97.3915,24.9293,236.0768,124.0415,0,U,63219,999,6408,.50391E-3,.15795E-3,0
TEVEL2-9,2025-052AD,2026-05-08T05:29:16.511712,15.30699981,.0004129,97.3984,23.6624,290.4131,69.6666,0,U,63237,999,6391,.43681E-3,.12896E-3,0
TEVEL2-7,2025-052AE,2026-05-09T04:15:52.238016,15.30460041,.0004194,97.3978,24.5401,284.9333,75.1444,0,U,63238,999,6405,.44475E-3,.13035E-3,0
TEVEL2-8,2025-052AF,2026-05-09T04:27:07.644096,15.30441699,.0004154,97.3979,24.5262,286.0198,74.0585,0,U,63239,999,6405,.45132E-3,.13221E-3,0
