SATELIOT_4              
1 60537U 24149BX  26129.12463105  .00001266  00000+0  11641-3 0  9993
2 60537  97.6734 204.3504 0002705 138.9315 221.2111 14.96525772 94136
PICO-02A021             
1 60538U 24149BY  26128.68859136  .00004328  00000+0  32704-3 0  9992
2 60538  97.6764 207.8727 0006209 141.3619 218.8052 15.02884398 93802
ICEYE-X43               
1 60539U 24149BZ  26129.19755494  .00001954  00000+0  16299-3 0  9995
2 60539  97.6771 206.7008 0004037 212.6631 147.4343 14.99734011 94277
HAWK-10A                
1 60540U 24149CA  26129.18644730  .00000689  00000+0  65881-4 0  9992
2 60540  97.6900 205.7700 0003174 177.4024 182.7215 14.96393788 94152
UMBRA-09                
1 60541U 24149CB  26129.16062196  .00012419  00000+0  63369-3 0  9993
2 60541  97.6960 215.7393 0001475 136.8325 223.3023 15.16873968 94800
QPS-SAR-8 (AMATERU-IV)  
1 60542U 24149CC  26129.20441984  .00003656  00000+0  27086-3 0  9994
2 60542  97.6668 208.6948 0002012 205.8564 154.2561 15.03745398 94410
ARCTIC WEATHER SATELLITE
1 60543U 24149CD  26129.19820480  .00000641  00000+0  72366-4 0  9998
2 60543  97.6809 200.7749 0001262 192.7819 167.3367 14.89791182 93494
CAPELLA-15 (ACADIA-5)   
1 60544U 24149CE  26128.63126158  .00000972  00000+0  10029-3 0  9992
2 60544  97.6763 202.5196 0003707 188.2700 171.8459 14.92407091 93955
HAWK-10B                
1 60545U 24149CF  26129.18630095  .00000658  00000+0  63099-4 0  9991
2 60545  97.6819 205.1642 0004476 209.6714 150.4254 14.96394060 94154
ICEYE-X39               
1 60546U 24149CG  26129.18018851  .00002428  00000+0  20161-3 0  9991
2 60546  97.6826 206.7318 0002016 179.4779 180.6447 14.99694740 94276
UMBRA-10                
1 60547U 24149CH  26129.22614157  .00012180  00000+0  62153-3 0  9991
2 60547  97.6964 215.8308 0002385 113.8429 246.3053 15.16874835 94822
ICEYE-X33               
1 60548U 24149CJ  26129.16827329  .00003344  00000+0  26740-3 0  9996
2 60548  97.7154 208.5521 0001070 348.4955  11.6244 15.00893757 94351
ICEYE-X40               
1 60549U 24149CK  26129.15611091  .00001906  00000+0  16715-3 0  9996
2 60549  97.6807 206.2811 0004585 186.2996 173.8170 14.97814549 94233
SATELIOT_1              
1 60550U 24149CL  26129.15011025  .00002566  00000+0  22275-3 0  9990
2 60550  97.6739 205.7006 0006516 190.9620 169.1461 14.97905304 94221
BRO-14                  
1 60551U 24149CM  26129.20402764  .00000477  00000+0  47481-4 0  9997
2 60551  97.6874 205.6825 0005857 218.2396 141.8411 14.96100842 94169
SATELIOT_3              
1 60552U 24149CN  26129.52633794  .00000994  00000+0  89330-4 0  9995
2 60552  97.6819 206.8276 0004422 201.4016 158.7022 14.97896555 94295
BRO-15                  
1 60553U 24149CP  26129.18548227  .00000164  00000+0  19711-4 0  9999
2 60553  97.6807 205.3029 0007237 210.0334 150.0473 14.96064009 94171
UM5-RIBAT               
1 60554U 24149CQ  26129.13934213  .00002109  00000+0  17054-3 0  9997
2 60554  97.6658 207.4661 0002920 123.3216 236.8288 15.00857680 94336
UM5-EOSAT               
1 60555U 24149CR  26129.18327492  .00002109  00000+0  16869-3 0  9991
2 60555  97.6651 208.4091 0006329 231.7397 128.3259 15.01262113 94367
LASARSAT                
1 62391U 24247Q   26128.40835912  .00026509  00000+0  57535-3 0  9990
2 62391  44.9737 125.3066 0004564  82.0507 278.0899 15.43952708 77169
CROCUBE                 
1 62394U 24247T   26128.70880433  .00031054  00000+0  63709-3 0  9995
2 62394  44.9720 121.5399 0004132  85.4811 274.6551 15.45536838 77236
TEVEL2-4                
1 63213U 25052D   26129.17089106  .00014848  00000+0  46397-3 0  9997
2 63213  97.3941  25.5319 0001108 183.6513 176.4721 15.33267725 64135
TEVEL2-5                
1 63214U 25052E   26129.18726906  .00015094  00000+0  47388-3 0  9990
2 63214  97.3938  25.5066 0001124 183.4233 176.7001 15.33113840 64138
TEVEL2-6                
1 63215U 25052F   26129.19865323  .00015112  00000+0  47497-3 0  9991
2 63215  97.3941  25.5029 0001168 193.5453 166.5758 15.33076701 64136
TEVEL2-1                
1 63217U 25052H   26128.95364477  .00015761  00000+0  50293-3 0  9998
2 63217  97.3911  24.9271 0000625 230.2543 129.8644 15.32583713 64088
TEVEL2-3                
1 63218U 25052J   26129.21074580  .00014198  00000+0  45263-3 0  9996
2 63218  97.3916  25.2012 0000648 229.6611 130.4574 15.32636927 64125
TEVEL2-2                
1 63219U 25052K   26128.95413969  .00015795  00000+0  50391-3 0  9997
2 63219  97.3915  24.9293 0000618 236.0768 124.0415 15.32589483 64086
TEVEL2-9                
1 63237U 25052AD  26128.22866333  .00012896  00000+0  43681-3 0  9997
2 63237  97.3984  23.6624 0004129 290.4131  69.6666 15.30699981 63911
TEVEL2-7                
1 63238U 25052AE  26129.17768794  .00013035  00000+0  44475-3 0  9993
2 63238  97.3978  24.5401 0004194 284.9333  75.1444 15.30460041 64057
TEVEL2-8                
1 63239U 25052AF  26129.18550514  .00013221  00000+0  45132-3 0  9992
2 63239  97.3979  24.5262 0004154 286.0198  74.0585 15.30441699 64054
